2000 SB45,e,3.67045,195.540222,216.378985,1.55802221,0,0.3962242,69.001211,3/2/2003,2000.0,24.34,0.15
2000 SZ162,e,0.891104,14.741366,131.26078,0.92971866,0,0.16649495,125.693775,3/2/2003,2000.0,27.24,0.15
2000 SU180,e,11.824985,328.523145,135.372026,2.10216034,0,0.60838625,258.022651,3/2/2003,2000.0,18.76,0.15
2000 SL238,e,12.543953,190.89528,7.239252,2.39788619,0,0.2678948,40.281011,3/2/2003,2000.0,12.99,0.15
2000 SG344,e,0.109682,192.384047,274.82682,0.97738959,0,0.06686932,90.346673,3/2/2003,2000.0,24.79,0.15
2000 SJ344,e,5.768599,15.038348,18.674983,1.13976194,0,0.17440218,342.140268,3/2/2003,2000.0,22.55,0.15
2000 TH1,e,12.141165,12.843924,335.264582,2.30546406,0,0.54298237,253.343556,3/2/2003,2000.0,22.35,0.15
2000 TJ1,e,39.53693,190.467573,52.471316,1.16065875,0,0.08102359,95.073678,3/2/2003,2000.0,18.88,0.15
2000 TK1,e,29.226109,13.071816,167.287338,1.19950292,0,0.57175979,163.148743,3/2/2003,2000.0,17.2,0.15
2000 TL1,e,3.608746,27.382915,279.180905,1.3377839,0,0.30008979,237.496374,3/2/2003,2000.0,22.54,0.15
2000 TE2,e,6.231746,9.211289,9.831837,1.32035726,0,0.21391341,206.502735,3/2/2003,2000.0,24.76,0.15
2000 TA22,e,2.877913,107.198325,15.342919,2.74000535,0,0.21761081,114.234565,3/2/2003,2000.0,10.72,0.15
2000 TU28,e,15.649994,203.128727,280.58477,1.07375059,0,0.18298171,332.505077,3/2/2003,2000.0,20.42,0.15
2000 TO64,e,37.520091,223.795972,177.664335,2.74168532,0,0.61919916,189.920759,3/2/2003,2000.0,16.75,0.15
2000 UA,e,21.857808,322.655772,96.859531,2.32869873,0,0.33713739,231.824858,3/2/2003,2000.0,13.75,0.15
2000 UH1,e,14.807222,76.374264,40.654409,1.87590741,0,0.54331879,302.329096,3/2/2003,2000.0,19.28,0.15
2000 UG11,e,8.944058,224.393091,240.362474,1.93272479,0,0.5727334,294.760101,3/2/2003,2000.0,20.31,0.15
2000 UH11,e,32.217559,29.829621,187.356498,0.87027584,0,0.42231825,133.25414,3/2/2003,2000.0,19.41,0.15
2000 UK11,e,0.774927,238.083534,292.553384,0.88484357,0,0.24775015,179.253165,3/2/2003,2000.0,25,0.15
2000 UL11,e,2.175848,333.769687,151.011417,2.12482428,0,0.63459529,251.586253,3/2/2003,2000.0,19.91,0.15
2000 UW13,e,26.462144,33.652719,39.744993,1.27497327,0,0.14528403,192.562595,3/2/2003,2000.0,20.17,0.15
2000 UR16,e,11.741552,33.895657,228.714697,0.90367009,0,0.43865456,346.589099,3/2/2003,2000.0,23.37,0.15
2000 UT16,e,26.270569,257.487517,91.265415,2.57131821,0,0.50937814,227.112076,3/2/2003,2000.0,16.04,0.15
2000 UV16,e,4.083959,341.840794,352.593832,2.34629829,0,0.48526206,260.826068,3/2/2003,2000.0,16.81,0.15
2000 UN30,e,20.695293,66.485931,271.636473,2.11877418,0,0.48804873,294.639054,3/2/2003,2000.0,18.08,0.15
2000 UO30,e,12.61957,40.268183,30.175094,1.8077155,0,0.44995937,334.203927,3/2/2003,2000.0,23.79,0.15
2000 UP30,e,9.310437,195.613221,118.150297,2.24802583,0,0.76361536,266.23172,3/2/2003,2000.0,17.1,0.15
2000 UQ30,e,4.267927,60.384984,37.583354,1.74659421,0,0.45553145,342.333958,3/2/2003,2000.0,21.53,0.15
2000 UY33,e,26.03709,37.489068,81.353714,1.12412582,0,0.0544499,268.871612,3/2/2003,2000.0,22.07,0.15
2000 VM2,e,6.390318,329.957257,187.158548,1.77497804,0,0.67998973,309.616952,3/2/2003,2000.0,17.03,0.15
2000 VZ44,e,5.393923,8.74713,128.455227,2.11709173,0,0.7469203,254.815882,3/2/2003,2000.0,21.01,0.15
2000 VJ61,e,18.670136,270.743796,280.391278,2.18334456,0,0.56371004,226.868775,3/2/2003,2000.0,15.7,0.15
2000 VE62,e,22.178844,207.193235,16.12448,1.61873471,0,0.2875128,225.519624,3/2/2003,2000.0,16.58,0.15
2000 WB1,e,41.113871,21.513619,262.868496,1.30136435,0,0.61897189,253.98998,3/2/2003,2000.0,17.33,0.15
2000 WC1,e,17.41957,50.885005,229.996879,0.87947831,0,0.26277522,28.414908,3/2/2003,2000.0,21.94,0.15
2000 WG6,e,11.791553,61.086545,329.382177,2.31862303,0,0.49886362,236.541276,3/2/2003,2000.0,17.44,0.15
2000 WG10,e,6.304469,49.52896,74.126742,1.16437342,0,0.20608168,246.233295,3/2/2003,2000.0,23.31,0.15
2000 WH10,e,13.27055,50.303594,63.334941,2.53079674,0,0.66252349,193.565391,3/2/2003,2000.0,21.96,0.15
2000 WK10,e,14.759745,58.279485,244.169297,1.47857907,0,0.70206687,140.591137,3/2/2003,2000.0,18.17,0.15
2000 WL10,e,10.140286,252.790961,114.35618,3.15820652,0,0.71284422,151.505018,3/2/2003,2000.0,17.99,0.15
2000 WM10,e,0.71084,97.208056,331.094408,2.28736483,0,0.55166566,234.517696,3/2/2003,2000.0,23.81,0.15
2000 WN10,e,21.465669,61.036537,225.206631,1.0017257,0,0.29931853,207.757116,3/2/2003,2000.0,19.86,0.15
2000 WD13,e,28.222736,92.695408,68.656549,2.60801771,0,0.48766749,173.251678,3/2/2003,2000.0,15.69,0.15
2000 WP19,e,7.67873,55.983576,221.944313,0.85457914,0,0.28870178,69.95412,3/2/2003,2000.0,22.32,0.15
2000 WQ19,e,34.272621,38.885744,270.66629,1.40586613,0,0.34689136,183.069686,3/2/2003,2000.0,18.09,0.15
2000 WN22,e,24.687402,62.334996,125.581402,2.32973942,0,0.31601293,110.794919,3/2/2003,2000.0,13.61,0.15
2000 WS28,e,7.732805,57.689959,49.968854,2.05698885,0,0.56395019,265.608455,3/2/2003,2000.0,23.25,0.15
2000 WT28,e,5.801589,47.89883,18.285167,2.55937641,0,0.60897613,198.88088,3/2/2003,2000.0,24.04,0.15
2000 WY50,e,27.770576,240.386699,293.305174,2.76886544,0,0.43012106,117.237106,3/2/2003,2000.0,14.14,0.15
2000 WH56,e,20.647163,303.553362,68.521226,2.41802945,0,0.35127296,279.534265,3/2/2003,2000.0,14.21,0.15
2000 WG63,e,9.190638,243.492051,185.475338,1.91001446,0,0.47443043,306.141641,3/2/2003,2000.0,22.85,0.15
2000 WH63,e,11.829664,234.452186,163.810359,2.36699104,0,0.53530666,229.621687,3/2/2003,2000.0,21.45,0.15
2000 WK63,e,10.399231,164.111533,40.869639,2.43720469,0,0.75856669,175.68511,3/2/2003,2000.0,15.77,0.15
2000 WL63,e,18.278847,79.510441,71.648715,1.43176352,0,0.29853102,62.951071,3/2/2003,2000.0,19.56,0.15
2000 WM63,e,20.136504,74.567689,214.490766,1.02978815,0,0.15646261,188.143904,3/2/2003,2000.0,19.6,0.15
2000 WN63,e,13.147142,56.065311,144.204571,1.57320388,0,0.53169129,320.379315,3/2/2003,2000.0,19.16,0.15
2000 WO67,e,9.706003,107.857256,237.621709,2.43128703,0,0.61856866,246.542419,3/2/2003,2000.0,16.11,0.15
2000 WS67,e,20.659646,73.848992,198.275884,1.29879438,0,0.70713392,270.027598,3/2/2003,2000.0,17.91,0.15
2000 WJ107,e,5.964629,238.266448,126.817533,1.94757968,0,0.55712432,315.35474,3/2/2003,2000.0,23.35,0.15
2000 WL107,e,4.897474,251.548415,183.909849,2.90128132,0,0.65403285,162.694491,3/2/2003,2000.0,24.64,0.15
2000 WM107,e,19.349649,71.690808,281.019164,2.54042996,0,0.60705084,220.746208,3/2/2003,2000.0,18.67,0.15
2000 WN107,e,14.320015,163.483905,11.603947,2.15084873,0,0.61387998,202.911031,3/2/2003,2000.0,15.73,0.15
2000 WO107,e,7.784864,69.409332,213.560944,0.91142495,0,0.78068018,269.981012,3/2/2003,2000.0,19.12,0.15
2000 WH126,e,23.261666,84.533352,294.301504,2.3147488,0,0.34294056,280.466542,3/2/2003,2000.0,14.48,0.15
2000 WN148,e,12.427362,248.903382,177.429899,1.26603878,0,0.17374979,208.063058,3/2/2003,2000.0,22.39,0.15
2000 WO148,e,4.4172,150.287856,323.587565,1.64189052,0,0.3764524,359.1242,3/2/2003,2000.0,20.6,0.15
2000 WP148,e,21.280836,252.093323,237.828411,1.31809872,0,0.2639779,130.674808,3/2/2003,2000.0,19.01,0.15
2000 WQ148,e,1.870653,223.873891,276.445917,2.02783088,0,0.59192372,262.397216,3/2/2003,2000.0,22.22,0.15
2000 WB165,e,15.541346,101.575355,42.702082,2.72495156,0,0.44825022,146.834242,3/2/2003,2000.0,14.25,0.15
2000 WX187,e,6.072825,329.978538,339.465725,2.36628512,0,0.1547249,301.544778,3/2/2003,2000.0,9.59,0.15
2000 XE15,e,25.695017,70.873656,358.036708,2.99829701,0,0.42993308,173.698035,3/2/2003,2000.0,13.49,0.15
2000 XH44,e,11.391553,340.364245,194.783709,2.00674438,0,0.39280595,226.232944,3/2/2003,2000.0,15.63,0.15
2000 XJ44,e,10.654266,287.133239,52.016654,2.13418124,0,0.70703257,277.105625,3/2/2003,2000.0,19.55,0.15
2000 XK44,e,11.231232,48.239762,347.332214,1.72396839,0,0.38518171,20.732017,3/2/2003,2000.0,17.6,0.15
2000 XM44,e,22.561846,32.734887,107.498685,2.32507006,0,0.27714748,193.528944,3/2/2003,2000.0,13.64,0.15
2000 XG47,e,25.266052,44.079328,127.436646,2.14175703,0,0.54193587,223.874826,3/2/2003,2000.0,16.47,0.15
2000 YA,e,2.792982,85.796126,57.903354,2.38019329,0,0.65243919,205.019796,3/2/2003,2000.0,23.65,0.15
2000 YL2,e,10.889856,61.715879,261.189057,2.29422151,0,0.26987071,261.595482,3/2/2003,2000.0,13.45,0.15
2000 YH4,e,17.970592,85.745534,269.273407,1.48954375,0,0.4584985,109.791263,3/2/2003,2000.0,18.42,0.15
2000 YK4,e,26.076224,281.676444,233.909656,1.6667452,0,0.37267522,338.603338,3/2/2003,2000.0,19.27,0.15
2000 YJ11,e,7.265915,65.09736,338.905971,1.31090599,0,0.23092856,189.852379,3/2/2003,2000.0,20.37,0.15
2000 YF29,e,6.299886,124.927781,27.825221,1.49155059,0,0.37124713,42.092779,3/2/2003,2000.0,20.15,0.15
2000 YG29,e,18.920653,92.465777,358.316322,3.1652967,0,0.69594781,140.824083,3/2/2003,2000.0,18.69,0.15
2000 YH29,e,21.811084,104.179208,284.293516,2.2181401,0,0.5279537,256.436886,3/2/2003,2000.0,17.8,0.15
2000 YJ29,e,43.664233,266.25458,327.702417,1.96102773,0,0.83350735,260.561252,3/2/2003,2000.0,17.63,0.15
2000 YL29,e,21.883378,182.866454,115.760767,1.53636942,0,0.34415645,235.109216,3/2/2003,2000.0,16.04,0.15
2000 YN29,e,5.44362,72.78625,132.333204,2.53132211,0,0.67246168,158.9472,3/2/2003,2000.0,17.55,0.15
2000 YO29,e,54.526401,262.746506,309.316706,1.81385434,0,0.69465656,282.593094,3/2/2003,2000.0,17.53,0.15
2000 YQ29,e,13.76568,118.745841,103.82834,2.6732999,0,0.51368875,151.904593,3/2/2003,2000.0,15.62,0.15
2000 YH66,e,18.326889,265.349335,341.261676,1.1729961,0,0.74362341,177.525771,3/2/2003,2000.0,17.53,0.15
2000 YJ66,e,5.768802,309.613217,49.113387,2.33187505,0,0.45890996,284.777372,3/2/2003,2000.0,15.1,0.15
2000 YS134,e,3.496879,97.603182,189.016609,0.8574744,0,0.22401074,72.495251,3/2/2003,2000.0,23.25,0.15
2000 YT134,e,40.863871,299.047167,87.232019,1.61996496,0,0.36080338,59.011846,3/2/2003,2000.0,18.37,0.15
2000 YV137,e,28.010452,137.312658,211.252796,1.44756468,0,0.31064138,180.43288,3/2/2003,2000.0,18.07,0.15
2001 AW1,e,32.836527,344.708,198.649598,2.18450223,0,0.36619918,209.910942,3/2/2003,2000.0,14.71,0.15
2001 AD2,e,1.652415,211.486954,110.91472,1.03938785,0,0.65988322,88.482535,3/2/2003,2000.0,19.17,0.15
